[{"OBJECT_NAME":"STARLINK-1559","OBJECT_ID":"2020-055BC","EPOCH":"2026-03-09T05:36:23.522976","MEAN_MOTION":15.29461733,"ECCENTRICITY":0.0004229,"INCLINATION":53.0254,"RA_OF_ASC_NODE":76.0659,"ARG_OF_PERICENTER":33.971,"MEAN_ANOMALY":326.1559,"EPHEMERIS_TYPE":0,"CLASSIFICATION_TYPE":"U","NORAD_CAT_ID":46077,"ELEMENT_SET_NO":999,"REV_AT_EPOCH":30951,"BSTAR":0.0014778793,"MEAN_MOTION_DOT":0.00042685,"MEAN_MOTION_DDOT":0},{"OBJECT_NAME":"STARLINK-33818","OBJECT_ID":"2025-071K","EPOCH":"2026-03-09T12:07:07.606560","MEAN_MOTION":15.30184723,"ECCENTRICITY":0.00012152,"INCLINATION":53.1586,"RA_OF_ASC_NODE":140.6377,"ARG_OF_PERICENTER":91.1268,"MEAN_ANOMALY":268.9872,"EPHEMERIS_TYPE":0,"CLASSIFICATION_TYPE":"U","NORAD_CAT_ID":63502,"ELEMENT_SET_NO":999,"REV_AT_EPOCH":5274,"BSTAR":0.00056478664,"MEAN_MOTION_DOT":0.00016397,"MEAN_MOTION_DDOT":0}]
