STARLINK-1559           
1 46077U 20055BC  26068.23360559  .00042685  00000+0  14779-2 0  9995
2 46077  53.0254  76.0659 0004229  33.9710 326.1559 15.29461733309518
STARLINK-33818          
1 63502U 25071K   26068.50494915  .00016397  00000+0  56479-3 0  9999
2 63502  53.1586 140.6377 0001215  91.1268 268.9872 15.30184723 52744
